STARLINK-30846          
1 58210U 23170E   23325.16667824 -.01636168  00000+0 -18972-1 0  9994
2 58210  43.0006  84.3231 0001593 278.5796 146.9015 15.64125765  3814
STARLINK-30838          
1 58211U 23170F   23325.16667824 -.01636001  00000+0 -18972-1 0  9991
2 58211  43.0004  84.3187 0001653 270.4198 156.8921 15.64122233  3933
STARLINK-30837          
1 58212U 23170G   23325.16667824 -.01637135  00000+0 -18984-1 0  9994
2 58212  43.0001  84.3200 0001773 269.2491 157.4517 15.64124716  3949
STARLINK-30813          
1 58213U 23170H   23325.16667824 -.01634480  00000+0 -18952-1 0  9990
2 58213  43.0003  84.3166 0001813 269.6314 158.2902 15.64120527  3815
STARLINK-30805          
1 58214U 23170J   23325.16667824 -.01635467  00000+0 -18969-1 0  9995
2 58214  43.0004  84.3148 0001494 281.0858 147.4465 15.64118639  3920
STARLINK-30851          
1 58215U 23170K   23325.16667824 -.01636125  00000+0 -18979-1 0  9999
2 58215  43.0004  84.3133 0001430 279.8593 149.2833 15.64117526  3817
STARLINK-30786          
1 58216U 23170L   23325.16667824 -.01637511  00000+0 -18996-1 0  9999
2 58216  43.0004  84.3119 0001573 275.9525 153.8003 15.64117597  3922
STARLINK-30818          
1 58217U 23170M   23325.16667824 -.01637721  00000+0 -18999-1 0  9996
2 58217  43.0004  84.3102 0001617 268.5110 161.8514 15.64116815  3931
